STARLINK-36319          
1 67970U 26038K   26077.83335648 -.02327670  00000+0 -28818-1 0  9996
2 67970  97.2848  88.5915 0001816  75.5877  11.1887 15.63319719  4645
STARLINK-36710          
1 67971U 26038L   26077.83335648 -.02288485  00000+0 -22423-1 0  9993
2 67971  97.2854  88.6127 0001865  69.2465  72.5654 15.69621232  4674
STARLINK-36894          
1 67972U 26038M   26077.83335648 -.02286848  00000+0 -22055-1 0  9996
2 67972  97.2851  88.6142 0001932  73.4953  75.7424 15.69996205  4678
STARLINK-36900          
1 67973U 26038N   26077.83335648 -.02401235  00000+0 -44664-1 0  9996
2 67973  97.2839  88.5502 0001305 143.2264 207.7803 15.52677261  4677
STARLINK-36901          
1 67974U 26038P   26077.83335648 -.02286223  00000+0 -21962-1 0  9991
2 67974  97.2852  88.6163 0002040  75.8451  79.7350 15.70087739  4671
STARLINK-36883          
1 67975U 26038Q   26077.83335648 -.02275699  00000+0 -25491-1 0  9998
2 67975  97.2847  88.6241 0002042  78.9771  94.0596 15.66341197  4672
STARLINK-36880          
1 67976U 26038R   26077.83335648  .00080862  00000+0  14763-2 0  9992
2 67976  97.2844  88.5275 0002012  86.3034 208.7164 15.49129285  4676
STARLINK-36904          
1 67977U 26038S   26077.83335648 -.02327760  00000+0 -25711-1 0  9992
2 67977  97.2849  88.6206 0002004  74.1446  89.8461 15.66177837  4673
STARLINK-36364          
1 67978U 26038T   26077.92292208 -.01422670  00000+0 -12319-1 0  9992
2 67978  97.2862  88.7288 0001846   5.4591 354.6693 15.72039897  4648
STARLINK-36359          
1 67979U 26038U   26077.83335648 -.02285679  00000+0 -23825-1 0  9990
2 67979  97.2850  88.6202 0001901  77.8318  89.2464 15.68123095  4672
STARLINK-36882          
1 67980U 26038V   26077.83335648 -.02327389  00000+0 -26466-1 0  9991
2 67980  97.2846  88.6252 0001969  80.2234  94.9594 15.65454934  4676
STARLINK-36874          
1 67981U 26038W   26077.92163466 -.00852663  00000+0 -69555-2 0  9992
2 67981  97.2862  88.7301 0002167  87.2018 272.9494 15.72932202  4640
