CCSDS_OMM_VERS = 2.0
CREATION_DATE  = 
ORIGINATOR     = 

OBJECT_NAME    = STARLINK-36319
OBJECT_ID      = 2026-038K
CENTER_NAME    = EARTH
REF_FRAME      = TEME
TIME_SYSTEM    = UTC
MEAN_ELEMENT_THEORY = SGP/SGP4

EPOCH          = 2026-03-18T20:00:01.999872
MEAN_MOTION    = 15.63319719
ECCENTRICITY   = .00018166
INCLINATION    = 97.2848
RA_OF_ASC_NODE = 88.5915
ARG_OF_PERICENTER = 75.5877
MEAN_ANOMALY   = 11.1887

EPHEMERIS_TYPE = 0
CLASSIFICATION_TYPE = U
NORAD_CAT_ID   = 67970
ELEMENT_SET_NO = 999
REV_AT_EPOCH   = 464
BSTAR          = -.28818134E-1
MEAN_MOTION_DOT = -.232767E-1
MEAN_MOTION_DDOT = 0

CCSDS_OMM_VERS = 2.0
CREATION_DATE  = 
ORIGINATOR     = 

OBJECT_NAME    = STARLINK-36710
OBJECT_ID      = 2026-038L
CENTER_NAME    = EARTH
REF_FRAME      = TEME
TIME_SYSTEM    = UTC
MEAN_ELEMENT_THEORY = SGP/SGP4

EPOCH          = 2026-03-18T20:00:01.999872
MEAN_MOTION    = 15.69621232
ECCENTRICITY   = .00018658
INCLINATION    = 97.2854
RA_OF_ASC_NODE = 88.6127
ARG_OF_PERICENTER = 69.2465
MEAN_ANOMALY   = 72.5654

EPHEMERIS_TYPE = 0
CLASSIFICATION_TYPE = U
NORAD_CAT_ID   = 67971
ELEMENT_SET_NO = 999
REV_AT_EPOCH   = 467
BSTAR          = -.22422887E-1
MEAN_MOTION_DOT = -.2288485E-1
MEAN_MOTION_DDOT = 0

CCSDS_OMM_VERS = 2.0
CREATION_DATE  = 
ORIGINATOR     = 

OBJECT_NAME    = STARLINK-36894
OBJECT_ID      = 2026-038M
CENTER_NAME    = EARTH
REF_FRAME      = TEME
TIME_SYSTEM    = UTC
MEAN_ELEMENT_THEORY = SGP/SGP4

EPOCH          = 2026-03-18T20:00:01.999872
MEAN_MOTION    = 15.69996205
ECCENTRICITY   = .0001932
INCLINATION    = 97.2851
RA_OF_ASC_NODE = 88.6142
ARG_OF_PERICENTER = 73.4953
MEAN_ANOMALY   = 75.7424

EPHEMERIS_TYPE = 0
CLASSIFICATION_TYPE = U
NORAD_CAT_ID   = 67972
ELEMENT_SET_NO = 999
REV_AT_EPOCH   = 467
BSTAR          = -.22055153E-1
MEAN_MOTION_DOT = -.2286848E-1
MEAN_MOTION_DDOT = 0

CCSDS_OMM_VERS = 2.0
CREATION_DATE  = 
ORIGINATOR     = 

OBJECT_NAME    = STARLINK-36900
OBJECT_ID      = 2026-038N
CENTER_NAME    = EARTH
REF_FRAME      = TEME
TIME_SYSTEM    = UTC
MEAN_ELEMENT_THEORY = SGP/SGP4

EPOCH          = 2026-03-18T20:00:01.999872
MEAN_MOTION    = 15.52677261
ECCENTRICITY   = .00013054
INCLINATION    = 97.2839
RA_OF_ASC_NODE = 88.5502
ARG_OF_PERICENTER = 143.2264
MEAN_ANOMALY   = 207.7803

EPHEMERIS_TYPE = 0
CLASSIFICATION_TYPE = U
NORAD_CAT_ID   = 67973
ELEMENT_SET_NO = 999
REV_AT_EPOCH   = 467
BSTAR          = -.44663796E-1
MEAN_MOTION_DOT = -.2401235E-1
MEAN_MOTION_DDOT = 0

CCSDS_OMM_VERS = 2.0
CREATION_DATE  = 
ORIGINATOR     = 

OBJECT_NAME    = STARLINK-36901
OBJECT_ID      = 2026-038P
CENTER_NAME    = EARTH
REF_FRAME      = TEME
TIME_SYSTEM    = UTC
MEAN_ELEMENT_THEORY = SGP/SGP4

EPOCH          = 2026-03-18T20:00:01.999872
MEAN_MOTION    = 15.70087739
ECCENTRICITY   = .00020407
INCLINATION    = 97.2852
RA_OF_ASC_NODE = 88.6163
ARG_OF_PERICENTER = 75.8451
MEAN_ANOMALY   = 79.7350

EPHEMERIS_TYPE = 0
CLASSIFICATION_TYPE = U
NORAD_CAT_ID   = 67974
ELEMENT_SET_NO = 999
REV_AT_EPOCH   = 467
BSTAR          = -.21962451E-1
MEAN_MOTION_DOT = -.2286223E-1
MEAN_MOTION_DDOT = 0

CCSDS_OMM_VERS = 2.0
CREATION_DATE  = 
ORIGINATOR     = 

OBJECT_NAME    = STARLINK-36883
OBJECT_ID      = 2026-038Q
CENTER_NAME    = EARTH
REF_FRAME      = TEME
TIME_SYSTEM    = UTC
MEAN_ELEMENT_THEORY = SGP/SGP4

EPOCH          = 2026-03-18T20:00:01.999872
MEAN_MOTION    = 15.66341197
ECCENTRICITY   = .00020428
INCLINATION    = 97.2847
RA_OF_ASC_NODE = 88.6241
ARG_OF_PERICENTER = 78.9771
MEAN_ANOMALY   = 94.0596

EPHEMERIS_TYPE = 0
CLASSIFICATION_TYPE = U
NORAD_CAT_ID   = 67975
ELEMENT_SET_NO = 999
REV_AT_EPOCH   = 467
BSTAR          = -.2549143E-1
MEAN_MOTION_DOT = -.2275699E-1
MEAN_MOTION_DDOT = 0

CCSDS_OMM_VERS = 2.0
CREATION_DATE  = 
ORIGINATOR     = 

OBJECT_NAME    = STARLINK-36880
OBJECT_ID      = 2026-038R
CENTER_NAME    = EARTH
REF_FRAME      = TEME
TIME_SYSTEM    = UTC
MEAN_ELEMENT_THEORY = SGP/SGP4

EPOCH          = 2026-03-18T20:00:01.999872
MEAN_MOTION    = 15.49129285
ECCENTRICITY   = .00020121
INCLINATION    = 97.2844
RA_OF_ASC_NODE = 88.5275
ARG_OF_PERICENTER = 86.3034
MEAN_ANOMALY   = 208.7164

EPHEMERIS_TYPE = 0
CLASSIFICATION_TYPE = U
NORAD_CAT_ID   = 67976
ELEMENT_SET_NO = 999
REV_AT_EPOCH   = 467
BSTAR          = .14762669E-2
MEAN_MOTION_DOT = .80862E-3
MEAN_MOTION_DDOT = 0

CCSDS_OMM_VERS = 2.0
CREATION_DATE  = 
ORIGINATOR     = 

OBJECT_NAME    = STARLINK-36904
OBJECT_ID      = 2026-038S
CENTER_NAME    = EARTH
REF_FRAME      = TEME
TIME_SYSTEM    = UTC
MEAN_ELEMENT_THEORY = SGP/SGP4

EPOCH          = 2026-03-18T20:00:01.999872
MEAN_MOTION    = 15.66177837
ECCENTRICITY   = .00020043
INCLINATION    = 97.2849
RA_OF_ASC_NODE = 88.6206
ARG_OF_PERICENTER = 74.1446
MEAN_ANOMALY   = 89.8461

EPHEMERIS_TYPE = 0
CLASSIFICATION_TYPE = U
NORAD_CAT_ID   = 67977
ELEMENT_SET_NO = 999
REV_AT_EPOCH   = 467
BSTAR          = -.25710791E-1
MEAN_MOTION_DOT = -.232776E-1
MEAN_MOTION_DDOT = 0

CCSDS_OMM_VERS = 2.0
CREATION_DATE  = 
ORIGINATOR     = 

OBJECT_NAME    = STARLINK-36364
OBJECT_ID      = 2026-038T
CENTER_NAME    = EARTH
REF_FRAME      = TEME
TIME_SYSTEM    = UTC
MEAN_ELEMENT_THEORY = SGP/SGP4

EPOCH          = 2026-03-18T22:09:00.467712
MEAN_MOTION    = 15.72039897
ECCENTRICITY   = .00018465
INCLINATION    = 97.2862
RA_OF_ASC_NODE = 88.7288
ARG_OF_PERICENTER = 5.4591
MEAN_ANOMALY   = 354.6693

EPHEMERIS_TYPE = 0
CLASSIFICATION_TYPE = U
NORAD_CAT_ID   = 67978
ELEMENT_SET_NO = 999
REV_AT_EPOCH   = 464
BSTAR          = -.12318838E-1
MEAN_MOTION_DOT = -.142267E-1
MEAN_MOTION_DDOT = 0

CCSDS_OMM_VERS = 2.0
CREATION_DATE  = 
ORIGINATOR     = 

OBJECT_NAME    = STARLINK-36359
OBJECT_ID      = 2026-038U
CENTER_NAME    = EARTH
REF_FRAME      = TEME
TIME_SYSTEM    = UTC
MEAN_ELEMENT_THEORY = SGP/SGP4

EPOCH          = 2026-03-18T20:00:01.999872
MEAN_MOTION    = 15.68123095
ECCENTRICITY   = .00019015
INCLINATION    = 97.2850
RA_OF_ASC_NODE = 88.6202
ARG_OF_PERICENTER = 77.8318
MEAN_ANOMALY   = 89.2464

EPHEMERIS_TYPE = 0
CLASSIFICATION_TYPE = U
NORAD_CAT_ID   = 67979
ELEMENT_SET_NO = 999
REV_AT_EPOCH   = 467
BSTAR          = -.2382454E-1
MEAN_MOTION_DOT = -.2285679E-1
MEAN_MOTION_DDOT = 0

CCSDS_OMM_VERS = 2.0
CREATION_DATE  = 
ORIGINATOR     = 

OBJECT_NAME    = STARLINK-36882
OBJECT_ID      = 2026-038V
CENTER_NAME    = EARTH
REF_FRAME      = TEME
TIME_SYSTEM    = UTC
MEAN_ELEMENT_THEORY = SGP/SGP4

EPOCH          = 2026-03-18T20:00:01.999872
MEAN_MOTION    = 15.65454934
ECCENTRICITY   = .00019695
INCLINATION    = 97.2846
RA_OF_ASC_NODE = 88.6252
ARG_OF_PERICENTER = 80.2234
MEAN_ANOMALY   = 94.9594

EPHEMERIS_TYPE = 0
CLASSIFICATION_TYPE = U
NORAD_CAT_ID   = 67980
ELEMENT_SET_NO = 999
REV_AT_EPOCH   = 467
BSTAR          = -.2646578E-1
MEAN_MOTION_DOT = -.2327389E-1
MEAN_MOTION_DDOT = 0

CCSDS_OMM_VERS = 2.0
CREATION_DATE  = 
ORIGINATOR     = 

OBJECT_NAME    = STARLINK-36874
OBJECT_ID      = 2026-038W
CENTER_NAME    = EARTH
REF_FRAME      = TEME
TIME_SYSTEM    = UTC
MEAN_ELEMENT_THEORY = SGP/SGP4

EPOCH          = 2026-03-18T22:07:09.234624
MEAN_MOTION    = 15.72932202
ECCENTRICITY   = .00021675
INCLINATION    = 97.2862
RA_OF_ASC_NODE = 88.7301
ARG_OF_PERICENTER = 87.2018
MEAN_ANOMALY   = 272.9494

EPHEMERIS_TYPE = 0
CLASSIFICATION_TYPE = U
NORAD_CAT_ID   = 67981
ELEMENT_SET_NO = 999
REV_AT_EPOCH   = 464
BSTAR          = -.69554569E-2
MEAN_MOTION_DOT = -.852663E-2
MEAN_MOTION_DDOT = 0

